[Satellite]
VERSION=1.1
NAME=GLONASS-K 2
NICKNAME=GLONASS-K 2
TLE1=1 40315U 14075A   17186.06868697 -.00000071  00000-0  00000-0 0  9992
TLE2=2 40315  64.3999 304.7144 0015378 204.7274 233.5418  2.13098612 20198
